{
  "type": "FeatureCollection",
  "features": [
    {
      "type": "Feature",
      "properties": {
        "id": "building_1",
        "addr:street": "Симона Петлюри",
        "addr:housenumber": "25"
      },
      "geometry": {
        "type": "Polygon",
        "coordinates": [[
          [27.661, 50.296], [27.662, 50.296],
          [27.662, 50.295], [27.661, 50.295],
          [27.661, 50.296]
        ]]
      }
    },
    {
      "type": "Feature",
      "properties": {
        "id": "building_2",
        "addr:street": "Володимирська",
        "addr:housenumber": "10"
      },
      "geometry": {
        "type": "Polygon",
        "coordinates": [[
          [27.660, 50.297], [27.661, 50.297],
          [27.661, 50.296], [27.660, 50.296],
          [27.660, 50.297]
        ]]
      }
    },
    {
      "type": "Feature",
      "properties": {
        "id": "building_3",
        "addr:street": "Соборна",
        "addr:housenumber": "5"
      },
      "geometry": {
        "type": "Polygon",
        "coordinates": [[
          [27.662, 50.298], [27.663, 50.298],
          [27.663, 50.297], [27.662, 50.297],
          [27.662, 50.298]
        ]]
      }
    },
    {
      "type": "Feature",
      "properties": {
        "id": "building_4",
        "addr:street": "Шевченка",
        "addr:housenumber": "15"
      },
      "geometry": {
        "type": "Polygon",
        "coordinates": [[
          [27.659, 50.295], [27.660, 50.295],
          [27.660, 50.294], [27.659, 50.294],
          [27.659, 50.295]
        ]]
      }
    },
    {
      "type": "Feature",
      "properties": {
        "id": "building_5",
        "addr:street": "Лесі Українки",
        "addr:housenumber": "3"
      },
      "geometry": {
        "type": "Polygon",
        "coordinates": [[
          [27.663, 50.295], [27.664, 50.295],
          [27.664, 50.294], [27.663, 50.294],
          [27.663, 50.295]
        ]]
      }
    }
  ]
}
